COMMENT,ORIGINATOR,NORAD_CAT_ID,OBJECT_NAME,OBJECT_TYPE,CLASSIFICATION_TYPE,INTLDES,EPOCH,EPOCH_MICROSECONDS,MEAN_MOTION,ECCENTRICITY,INCLINATION,RA_OF_ASC_NODE,ARG_OF_PERICENTER,MEAN_ANOMALY,EPHEMERIS_TYPE,ELEMENT_SET_NO,REV_AT_EPOCH,BSTAR,MEAN_MOTION_DOT,MEAN_MOTION_DDOT,FILE,TLE_LINE0,TLE_LINE1,TLE_LINE2,OBJECT_ID,OBJECT_NUMBER,SEMIMAJOR_AXIS,PERIOD,APOGEE,PERIGEE,DECAYED
"GENERATED VIA SPACETRACK.ORG API","18 SPCS","55096","SPACEBEE-161","PAYLOAD","U","23001CR","2024-06-02 04:04:53","82912","15.46934952","0.0010536","97.4203","220.2148","195.4078","164.6853","0","999","7876","0.0014814","0.00075289","0","4334418","0 SPACEBEE-161","1 55096U 23001CR  24154.17005883  .00075289  00000-0  14814-2 0  9990","2 55096  97.4203 220.2148 0010536 195.4078 164.6853 15.46934952 78769","2023-001CR","55096","6803.836","93.087","432.869","418.532","0"
